#aV2006  9  3  0  0   .00000000      96 DD+AD WGS84 FIT  NGA
## 1391       .00000000   900.00000000 53981  .0000000000000
+   29     1  2  3  4  5  6  7  8  9 10 11 13 14 15 16 17 18
+         19 20 21 22 23 24 25 26 27 28 29 30  0  0  0  0  0
+          0  0  0  0  0  0  0  0  0  0  0  0  0  0  0  0  0
+          0  0  0  0  0  0  0  0  0  0  0  0  0  0  0  0  0
+          0  0  0  0  0  0  0  0  0  0  0  0  0  0  0  0  0
++         0  0  0  0  0  0  0  0  0  0  0  0  0  0  0  0  0
++         0  0  0  0  0  0  0  0  0  0  0  0  0  0  0  0  0
++         0  0  0  0  0  0  0  0  0  0  0  0  0  0  0  0  0
++         0  0  0  0  0  0  0  0  0  0  0  0  0  0  0  0  0
++         0  0  0  0  0  0  0  0  0  0  0  0  0  0  0  0  0
%c cc cc ccc ccc cccc cccc cccc cccc ccccc ccccc ccccc ccccc
%c cc cc ccc ccc cccc cccc cccc cccc ccccc ccccc ccccc ccccc
%f  0.0000000  0.000000000  0.00000000000  0.000000000000000
%f  0.0000000  0.000000000  0.00000000000  0.000000000000000
%i    0    0    0    0      0      0      0      0         0
%i    0    0    0    0      0      0      0      0         0
/*      NGA, ST. LOUIS,MO.                                  
/*   EPHEMERIS COMPUTED FROM  3 DAYS OF DATA                
/* CCCCCCCCCCCCCCCCCCCCCCCCCCCCCCCCCCCCCCCCCCCCCCCCCCCCCCCCC
/* CCCCCCCCCCCCCCCCCCCCCCCCCCCCCCCCCCCCCCCCCCCCCCCCCCCCCCCCC
*  2006  9  3  4 30   .00000000                                                 
P  1  -8873.853463  17932.243014  17632.422473     74.508212                    
V  1 -19902.983895   9358.430260 -19813.269669       .022771                    
P  2  -3304.128932 -17731.993920  19328.225098     30.927232                    
V  2  22491.664042  11068.205551  13601.325605       .039495                    
P  3  -2405.781943  18937.070483 -18518.173642     31.165949                    
V  3 -20144.349732  12062.005454  15415.816780       .605794                    
P  4  10746.685163 -11493.742030  21387.563182    304.080936                    
V  4  23392.853170  14002.357352  -3872.947253       .061187                    
P  5 -12843.587961 -17460.435096  15241.885715    328.574413                    
V  5    571.706151 -19876.447579 -21812.251834       .159051                    
P  6 -23280.771701   3961.976155  12411.746256    598.422703                    
V  6  11505.273213 -10778.179234  25355.890871      -.017963                    
P  7 -17765.780983  18348.613896  -7135.691838    530.663012                    
V  7  -9788.711342   2508.452085  29320.900225      -.036367                    
P  8  18037.456064  -4248.199733 -19326.464840    -78.295408                    
V  8  19961.044426  13463.859154  15374.499749      -.013584                    
P  9 -19864.658185 -16311.428992  -7770.733258     34.550483                    
V  9   9088.046458   2089.743686 -29567.038476       .015506                    
P 10  -1074.015679 -26296.392079  -2059.287057     89.078331                    
V 10   2715.253714  -2484.381874  32082.988095       .005408                    
P 11  22639.003533  13126.031706  -5360.210766    348.312609                    
V 11  -7879.099020   1768.940034 -29071.685019       .020295                    
P 13  23467.155945  -4450.711614  11478.167295     90.997468                    
V 13 -12073.141961   8517.691218  27798.792337       .032964                    
P 14 -20928.237892  15605.095663   4756.899949     -6.278752                    
V 14  -6151.018926   1229.024951 -31613.252361       .007193                    
P 15 -17540.530019   4958.735018 -19597.381580    619.748330                    
V 15 -19772.814774 -14460.653412  13716.729791      -.559988                    
P 16  -1685.691979  26339.572321   2410.098808     69.889600                    
V 16  -2833.388283  -2974.611025  31684.435362       .032272                    
P 17  21102.781471 -15562.179010   3871.250884     96.839418                    
V 17   5718.198414    -14.704857 -31297.936516      -.009582                    
P 18 -15209.763811   2850.969129 -21440.719697   -247.992596                    
V 18    370.401194 -27552.912519  -4222.856054      -.009436                    
P 19   7367.525488  13330.962686 -21652.118006     12.598190                    
V 19 -24703.657239  12660.672347   -539.852292       .030620                    
P 20  13388.137567  13321.962709  18595.561123    -22.786084                    
V 20  -1046.017858  23827.584733 -16213.508155       .002848                    
P 21 -22677.438160  -1907.748775 -14047.843858     50.687916                    
V 21 -14017.250158 -11214.699163  23464.668681       .019186                    
P 22 -12022.645502  17335.632183 -15963.610508    130.981648                    
V 22  -1257.303359 -20657.431878 -21298.342799       .031800                    
P 23  17675.331964   4844.101636  19198.780379    137.772233                    
V 23 -20479.655028  13479.059688  15196.823817       .000801                    
P 24  16477.146924  -6326.344320  20166.261816     33.212343                    
V 24  20629.658262  14181.364383 -12272.025433       .027947                    
P 25  -3488.518222  15327.535731  21795.589783    313.152262                    
V 25 -24603.640998 -10563.636636   3699.792948       .143308                    
P 26  -6154.575296 -13414.611021 -22466.391387   -239.739788                    
V 26  24200.310569 -13036.079871   1732.319829      -.143838                    
P 27  23725.120126   2690.215001 -11341.452899     65.963220                    
V 27  12666.702695   8791.391254  26827.284734       .018678                    
P 28  12994.702416 -13469.382290 -18411.372291     19.564292                    
V 28   1498.693436  24131.264640 -16677.256649      -.008727                    
P 29  -2761.300680 -14916.242385 -21533.836469     -8.671964                    
V 29  24174.658672 -13859.950818   6718.351992      -.544257                    
P 30 -15404.095904  -3384.474556  21089.704503      8.840104                    
V 30   -783.231328 -27503.101674  -4801.990157       .012352                    
EOF
